NORAD_CAT_ID,OBJECT_NAME,OBJECT_TYPE,EPOCH,MEAN_MOTION,ECCENTRICITY,INCLINATION,RA_OF_ASC_NODE,ARG_OF_PERICENTER,MEAN_ANOMALY,BSTAR,MEAN_MOTION_DOT,MEAN_MOTION_DDOT,TLE_LINE0,TLE_LINE1,TLE_LINE2,SEMIMAJOR_AXIS,PERIOD,APOGEE,PERIGEE,DECAYED
54167.0,STARLINK-5243,PAYLOAD,2024-06-09 13:18:37,15.08830461,0.0001518,53.2142,358.6009,83.7298,276.3867,1.7125e-05,-1.5e-07,0.0,0 STARLINK-5243,1 54167U 22141L   24161.55459858 -.00000015  00000-0  17125-4 0  9993,2 54167  53.2142 358.6009 0001518  83.7298 276.3867 15.08830461 89377,6917.91,95.438,540.825,538.724,0.0
54167.0,STARLINK-5243,PAYLOAD,2024-06-09 19:40:09,15.08832483,0.0001526,53.21,357.4095,87.6476,272.4691,-4.2526e-05,-9.65e-06,0.0,0 STARLINK-5243,1 54167U 22141L   24161.81955909 -.00000965  00000-0 -42526-4 0  9998,2 54167  53.2100 357.4095 0001526  87.6476 272.4691 15.08832483 89427,6917.903,95.438,540.824,538.713,0.0
54167.0,STARLINK-5243,PAYLOAD,2024-06-09 22:50:55,15.08836366,0.0001449,53.2197,356.8167,95.6894,264.4264,-1.9832e-05,-6.04e-06,0.0,0 STARLINK-5243,1 54167U 22141L   24161.95203674 -.00000604  00000-0 -19832-4 0  9992,2 54167  53.2197 356.8167 0001449  95.6894 264.4264 15.08836366 89446,6917.891,95.438,540.759,538.754,0.0
54167.0,STARLINK-5243,PAYLOAD,2024-06-10 17:55:33,15.08832436,0.0001404,53.2183,353.249,93.027,267.0883,0.00015672,2.207e-05,0.0,0 STARLINK-5243,1 54167U 22141L   24162.74691564  .00002207  00000-0  15672-3 0  9995,2 54167  53.2183 353.2490 0001404  93.0270 267.0883 15.08832436 89554,6917.904,95.438,540.74,538.797,0.0
54167.0,STARLINK-5243,PAYLOAD,2024-06-10 22:41:42,15.08841815,0.0001634,53.2195,352.3552,99.9072,260.2105,0.00011599,1.559e-05,0.0,0 STARLINK-5243,1 54167U 22141L   24162.94562934  .00001559  00000-0  11599-3 0  9998,2 54167  53.2195 352.3552 0001634  99.9072 260.2105 15.08841815 89593,6917.875,95.437,540.87,538.609,0.0
54167.0,STARLINK-5243,PAYLOAD,2024-06-12 04:54:01,15.08845401,0.0001095,53.2163,346.7059,87.2095,272.9022,7.2296e-05,8.63e-06,0.0,0 STARLINK-5243,1 54167U 22141L   24164.20418888  .00000863  00000-0  72296-4 0  9996,2 54167  53.2163 346.7059 0001095  87.2095 272.9022 15.08845401 89776,6917.864,95.437,540.486,538.971,0.0
54167.0,STARLINK-5243,PAYLOAD,2024-06-12 17:37:08,15.08834393,0.0001555,53.2193,344.3311,101.0157,259.101,-9.7873e-05,-1.845e-05,0.0,0 STARLINK-5243,1 54167U 22141L   24164.73412372 -.00001845  00000-0 -97873-4 0  9997,2 54167  53.2193 344.3311 0001555 101.0157 259.1010 15.08834393 89850,6917.898,95.438,540.838,538.687,0.0
54167.0,STARLINK-5243,PAYLOAD,2024-06-13 04:44:50,15.08835501,0.0001633,53.2195,342.2513,101.3486,258.769,3.841e-06,-2.27e-06,0.0,0 STARLINK-5243,1 54167U 22141L   24165.19780371 -.00000227  00000-0  38410-5 0  9990,2 54167  53.2195 342.2513 0001633 101.3486 258.7690 15.08835501 89938,6917.894,95.438,540.889,538.629,0.0
54167.0,STARLINK-5243,PAYLOAD,2024-06-13 19:03:17,15.08848189,0.0001481,53.2183,339.5756,106.1454,253.9701,6.57e-05,7.58e-06,0.0,0 STARLINK-5243,1 54167U 22141L   24165.79395217  .00000758  00000-0  65700-4 0  9996,2 54167  53.2183 339.5756 0001481 106.1454 253.9701 15.08848189 90020,6917.855,95.437,540.745,538.696,0.0
54167.0,STARLINK-5243,PAYLOAD,2024-06-14 04:35:36,15.08850172,0.0001412,53.2182,337.7859,78.8936,281.2214,1.3294e-05,-7.6e-07,0.0,0 STARLINK-5243,1 54167U 22141L   24166.19139170 -.00000076  00000-0  13294-4 0  9990,2 54167  53.2182 337.7859 0001412  78.8936 281.2214 15.08850172 90081,6917.849,95.437,540.691,538.737,0.0
54167.0,STARLINK-5243,PAYLOAD,2024-06-14 18:54:05,15.08836614,0.0001495,53.2184,335.1087,79.8655,280.2506,7.6182e-05,9.25e-06,0.0,0 STARLINK-5243,1 54167U 22141L   24166.78756151  .00000925  00000-0  76182-4 0  9996,2 54167  53.2184 335.1087 0001495  79.8655 280.2506 15.08836614 90176,6917.891,95.438,540.79,538.722,0.0
54167.0,STARLINK-5243,PAYLOAD,2024-06-15 04:26:24,15.08839361,0.0001459,53.2183,333.3275,84.0039,276.112,9.6617e-05,1.25e-05,0.0,0 STARLINK-5243,1 54167U 22141L   24167.18500022  .00001250  00000-0  96617-4 0  9992,2 54167  53.2183 333.3275 0001459  84.0039 276.1120 15.08839361 90233,6917.882,95.438,540.757,538.738,0.0
54167.0,STARLINK-5243,PAYLOAD,2024-06-15 17:09:28,15.08843893,0.0001221,53.2167,330.9488,85.4796,274.6336,8.7162e-05,1.1e-05,0.0,0 STARLINK-5243,1 54167U 22141L   24167.71491683  .00001100  00000-0  87162-4 0  9992,2 54167  53.2167 330.9488 0001221  85.4796 274.6336 15.08843893 90312,6917.868,95.437,540.578,538.889,0.0
54167.0,STARLINK-5243,PAYLOAD,2024-06-16 10:38:43,15.08841602,0.0001579,53.2186,327.6748,90.9654,269.1519,0.0001266,1.727e-05,0.0,0 STARLINK-5243,1 54167U 22141L   24168.44355626  .00001727  00000-0  12660-3 0  9994,2 54167  53.2186 327.6748 0001579  90.9654 269.1519 15.08841602 90425,6917.875,95.437,540.833,538.648,0.0
54167.0,STARLINK-5243,PAYLOAD,2024-06-16 17:00:15,15.08845015,0.0001531,53.2181,326.487,89.9763,270.1404,0.00015257,2.141e-05,0.0,0 STARLINK-5243,1 54167U 22141L   24168.70851324  .00002141  00000-0  15257-3 0  9995,2 54167  53.2181 326.4870 0001531  89.9763 270.1404 15.08845015 90461,6917.865,95.437,540.789,538.671,0.0
54167.0,STARLINK-5243,PAYLOAD,2024-06-17 16:51:03,15.08835267,0.0001258,53.2176,322.0265,94.0287,266.0849,1.8482e-05,6e-08,0.0,0 STARLINK-5243,1 54167U 22141L   24169.70212119  .00000006  00000-0  18482-4 0  9991,2 54167  53.2176 322.0265 0001258  94.0287 266.0849 15.08835267 90600,6917.895,95.438,540.63,538.89,0.0
54167.0,STARLINK-5243,PAYLOAD,2024-06-18 13:31:03,15.08841493,0.0001426,53.2179,318.1612,98.5972,261.5182,3.4201e-05,2.56e-06,0.0,0 STARLINK-5243,1 54167U 22141L   24170.56323705  .00000256  00000-0  34201-4 0  9995,2 54167  53.2179 318.1612 0001426  98.5972 261.5182 15.08841493 90745,6917.876,95.437,540.727,538.754,0.0
54167.0,STARLINK-5243,PAYLOAD,2024-06-18 16:41:49,15.08844491,0.0001346,53.2179,317.5675,94.7998,265.3148,6.4724e-05,7.42e-06,0.0,0 STARLINK-5243,1 54167U 22141L   24170.69571412  .00000742  00000-0  64724-4 0  9992,2 54167  53.2179 317.5675 0001346  94.7998 265.3148 15.08844491 90750,6917.867,95.437,540.663,538.801,0.0
54167.0,STARLINK-5243,PAYLOAD,2024-06-19 10:11:05,15.08830709,0.0001464,53.2182,314.2955,94.755,265.3609,5.0377e-05,5.14e-06,0.0,0 STARLINK-5243,1 54167U 22141L   24171.42436508  .00000514  00000-0  50377-4 0  9996,2 54167  53.2182 314.2955 0001464  94.7550 265.3609 15.08830709 90865,6917.909,95.438,540.787,538.761,0.0
54167.0,STARLINK-5243,PAYLOAD,2024-06-19 13:21:51,15.08831817,0.000146,53.2184,313.7017,110.0418,250.0732,4.6163e-05,4.47e-06,0.0,0 STARLINK-5243,1 54167U 22141L   24171.55684468  .00000447  00000-0  46163-4 0  9993,2 54167  53.2184 313.7017 0001460 110.0418 250.0732 15.08831817 90893,6917.905,95.438,540.78,538.76,0.0
54167.0,STARLINK-5243,PAYLOAD,2024-06-19 16:32:37,15.08829718,6.87e-05,53.2187,313.1101,108.357,251.7497,0.0001582,2.23e-05,0.0,0 STARLINK-5243,1 54167U 22141L   24171.68932374  .00002230  00000-0  15820-3 0  9996,2 54167  53.2187 313.1101 0000687 108.3570 251.7497 15.08829718 90919,6917.912,95.438,540.252,539.302,0.0
54167.0,STARLINK-5243,PAYLOAD,2024-06-20 14:48:01,15.08835639,0.00013,53.2185,308.945,101.2512,258.8626,6.1648e-06,-1.9e-06,0.0,0 STARLINK-5243,1 54167U 22141L   24172.61668757 -.00000190  00000-0  61648-5 0  9996,2 54167  53.2185 308.9450 0001300 101.2512 258.8626 15.08835639 91054,6917.894,95.438,540.658,538.859,0.0
54167.0,STARLINK-5243,PAYLOAD,2024-06-21 13:03:26,15.08821776,0.0001266,53.218,304.7812,104.207,255.9063,0.00017144,2.44e-05,0.0,0 STARLINK-5243,1 54167U 22141L   24173.54405814  .00002440  00000-0  17144-3 0  9991,2 54167  53.2180 304.7812 0001266 104.2070 255.9063 15.08821776 91182,6917.936,95.439,540.677,538.925,0.0
54167.0,STARLINK-5243,PAYLOAD,2024-06-21 14:38:49,15.08823724,0.0001176,53.2183,304.484,104.9817,255.1305,9.0025e-05,1.145e-05,0.0,0 STARLINK-5243,1 54167U 22141L   24173.61029793  .00001145  00000-0  90025-4 0  9998,2 54167  53.2183 304.4840 0001176 104.9817 255.1305 15.08823724 91208,6917.93,95.439,540.609,538.982,0.0
54167.0,STARLINK-5243,PAYLOAD,2024-06-21 17:49:35,15.08836089,0.0001381,53.218,303.8886,101.3178,258.797,-9.1519e-05,-1.744e-05,0.0,0 STARLINK-5243,1 54167U 22141L   24173.74277574 -.00001744  00000-0 -91519-4 0  9990,2 54167  53.2180 303.8886 0001381 101.3178 258.7970 15.08836089 91213,6917.892,95.438,540.713,538.802,0.0
54167.0,STARLINK-5243,PAYLOAD,2024-06-22 12:54:12,15.08840272,9.06e-05,53.2166,300.321,97.4108,262.6988,0.00012939,1.772e-05,0.0,0 STARLINK-5243,1 54167U 22141L   24174.53764771  .00001772  00000-0  12939-3 0  9995,2 54167  53.2166 300.3210 0000906  97.4108 262.6988 15.08840272 91335,6917.88,95.438,540.371,539.118,0.0
54167.0,STARLINK-5243,PAYLOAD,2024-06-22 14:29:35,15.08843334,0.0001065,53.2167,300.0233,99.1209,260.9903,0.00016364,2.318e-05,0.0,0 STARLINK-5243,1 54167U 22141L   24174.60388575  .00002318  00000-0  16364-3 0  9990,2 54167  53.2167 300.0233 0001065  99.1209 260.9903 15.08843334 91358,6917.87,95.437,540.472,538.998,0.0
54167.0,STARLINK-5243,PAYLOAD,2024-06-22 17:40:21,15.08852678,0.000104,53.2175,299.4263,83.9126,276.1984,0.00019854,2.874e-05,0.0,0 STARLINK-5243,1 54167U 22141L   24174.73635921  .00002874  00000-0  19854-3 0  9998,2 54167  53.2175 299.4263 0001040  83.9126 276.1984 15.08852678 91363,6917.842,95.437,540.426,538.987,0.0
54167.0,STARLINK-5243,PAYLOAD,2024-06-23 12:44:59,15.08840755,0.0001233,53.2172,295.8579,113.5051,246.6071,0.00013554,1.87e-05,0.0,0 STARLINK-5243,1 54167U 22141L   24175.53124665  .00001870  00000-0  13554-3 0  9991,2 54167  53.2172 295.8579 0001233 113.5051 246.6071 15.08840755 91486,6917.878,95.438,540.596,538.89,0.0
54167.0,STARLINK-5243,PAYLOAD,2024-06-23 14:20:22,15.0884078,0.0001167,53.2178,295.5606,112.99,247.1216,0.00013852,1.917e-05,0.0,0 STARLINK-5243,1 54167U 22141L   24175.59748654  .00001917  00000-0  13852-3 0  9990,2 54167  53.2178 295.5606 0001167 112.9900 247.1216 15.08840780 91500,6917.878,95.438,540.55,538.936,0.0
